NORAD_CAT_ID,OBJECT_NAME,OBJECT_TYPE,EPOCH,MEAN_MOTION,ECCENTRICITY,INCLINATION,RA_OF_ASC_NODE,ARG_OF_PERICENTER,MEAN_ANOMALY,BSTAR,MEAN_MOTION_DOT,MEAN_MOTION_DDOT,TLE_LINE0,TLE_LINE1,TLE_LINE2,SEMIMAJOR_AXIS,PERIOD,APOGEE,PERIGEE,DECAYED
51139.0,STARLINK-3172,PAYLOAD,2022-06-22 15:25:03,15.08842566,0.0001875,53.218,266.6459,44.4064,315.7079,3.7483e-05,3.08e-06,0.0,0 STARLINK-3172,1 51139U 22005AM  22173.64240665  .00000308  00000-0  37483-4 0  9996,2 51139  53.2180 266.6459 0001875  44.4064 315.7079 15.08842566 24026,6917.873000000001,95.437,541.035,538.44,0.0
51139.0,STARLINK-3172,PAYLOAD,2022-06-23 08:54:18,15.08836898,0.0001882,53.2187,263.376,50.1291,309.9866,-1.6102999999999998e-05,-5.44e-06,0.0,0 STARLINK-3172,1 51139U 22005AM  22174.37105224 -.00000544  00000-0 -16103-4 0  9998,2 51139  53.2187 263.3760 0001882  50.1291 309.9866 15.08836898 25241,6917.89,95.438,541.057,538.453,0.0
51139.0,STARLINK-3172,PAYLOAD,2022-06-23 12:05:05,15.08837886,0.00018,53.2194,262.7819,58.2777,301.839,4.9201e-06,-2.1e-06,0.0,0 STARLINK-3172,1 51139U 22005AM  22174.50353069 -.00000210  00000-0  49201-5 0  9990,2 51139  53.2194 262.7819 0001800  58.2777 301.8390 15.08837886 24155,6917.887,95.438,540.997,538.507,0.0
51139.0,STARLINK-3172,PAYLOAD,2022-06-23 15:15:51,15.08840382,0.0001864,53.2191,262.1875,52.7884,307.3278,2.5409e-05,1.16e-06,0.0,0 STARLINK-3172,1 51139U 22005AM  22174.63600861  .00000116  00000-0  25409-4 0  9996,2 51139  53.2191 262.1875 0001864  52.7884 307.3278 15.08840382 24179,6917.879,95.438,541.034,538.455,0.0
51139.0,STARLINK-3172,PAYLOAD,2022-06-23 23:12:46,15.08844921,0.000183,53.2184,260.7004,48.4215,311.6933,5.0881e-05,5.22e-06,0.0,0 STARLINK-3172,1 51139U 22005AM  22174.96720384  .00000522  00000-0  50881-4 0  9998,2 51139  53.2184 260.7004 0001830  48.4215 311.6933 15.08844921 25330,6917.865,95.437,540.996,538.464,0.0
51139.0,STARLINK-3172,PAYLOAD,2022-06-24 10:20:28,15.08838869,0.0001706,53.2195,258.6178,57.8987,302.217,-8.758500000000001e-06,-4.27e-06,0.0,0 STARLINK-3172,1 51139U 22005AM  22175.43088950 -.00000427  00000-0 -87585-5 0  9995,2 51139  53.2195 258.6178 0001706  57.8987 302.2170 15.08838869 25403,6917.884,95.438,540.929,538.569,0.0
51139.0,STARLINK-3172,PAYLOAD,2022-06-24 15:06:38,15.08834768,0.0001851,53.2194,257.7272,54.398,305.7185,-1.7052000000000002e-05,-5.59e-06,0.0,0 STARLINK-3172,1 51139U 22005AM  22175.62961286 -.00000559  00000-0 -17052-4 0  9995,2 51139  53.2194 257.7272 0001851  54.3980 305.7185 15.08834768 24321,6917.896,95.438,541.0419999999998,538.481,0.0
51139.0,STARLINK-3172,PAYLOAD,2022-06-25 11:46:38,15.0884443,0.0001785,53.2181,253.8599,45.5831,314.5307,5.576e-05,6e-06,0.0,0 STARLINK-3172,1 51139U 22005AM  22176.49072536  .00000600  00000-0  55760-4 0  9995,2 51139  53.2181 253.8599 0001785  45.5831 314.5307 15.08844430 25567,6917.8669999999975,95.437,540.967,538.497,0.0
51139.0,STARLINK-3172,PAYLOAD,2022-06-25 14:57:25,15.08842477,0.0001792,53.2186,253.2657,48.606,311.5086,4.2731e-05,3.92e-06,0.0,0 STARLINK-3172,1 51139U 22005AM  22176.62320675  .00000392  00000-0  42731-4 0  9992,2 51139  53.2186 253.2657 0001792  48.6060 311.5086 15.08842477 24476,6917.873000000001,95.437,540.9780000000002,538.498,0.0
51139.0,STARLINK-3172,PAYLOAD,2022-06-26 11:37:26,15.0883696,0.0001827,53.218,249.3998,46.7773,313.3372,5.498600000000001e-05,5.87e-06,0.0,0 STARLINK-3172,1 51139U 22005AM  22177.48433050  .00000587  00000-0  54986-4 0  9990,2 51139  53.2180 249.3998 0001827  46.7773 313.3372 15.08836960 25719,6917.89,95.438,541.019,538.491,0.0
51139.0,STARLINK-3172,PAYLOAD,2022-06-26 14:48:12,15.08839028,0.0001843,53.2181,248.8051,47.1773,312.9373,6.9972e-05,8.26e-06,0.0,0 STARLINK-3172,1 51139U 22005AM  22177.61680888  .00000826  00000-0  69972-4 0  9995,2 51139  53.2181 248.8051 0001843  47.1773 312.9373 15.08839028 24620,6917.8830000000025,95.438,541.023,538.4730000000002,0.0
51139.0,STARLINK-3172,PAYLOAD,2022-06-27 11:28:13,15.08836008,0.000191,53.2186,244.9403,50.2322,309.8838,-3.1864e-05,-7.95e-06,0.0,0 STARLINK-3172,1 51139U 22005AM  22178.47793545 -.00000795  00000-0 -31864-4 0  9991,2 51139  53.2186 244.9403 0001910  50.2322 309.8838 15.08836008 24753,6917.893,95.438,541.0790000000002,538.436,0.0
51139.0,STARLINK-3172,PAYLOAD,2022-06-27 16:14:23,15.08836337,0.0001898,53.218,244.0471,47.6828,312.4325,-3.5721e-05,-8.57e-06,0.0,0 STARLINK-3172,1 51139U 22005AM  22178.67665554 -.00000857  00000-0 -35721-4 0  9996,2 51139  53.2180 244.0471 0001898  47.6828 312.4325 15.08836337 25891,6917.892,95.438,541.07,538.444,0.0
51139.0,STARLINK-3172,PAYLOAD,2022-06-27 21:00:32,15.08836494,0.0001945,53.2182,243.1548,47.6347,312.481,-2.1853e-06,-3.23e-06,0.0,0 STARLINK-3172,1 51139U 22005AM  22178.87537468 -.00000323  00000-0 -21853-5 0  9990,2 51139  53.2182 243.1548 0001945  47.6347 312.4810 15.08836494 24811,6917.891,95.438,541.102,538.411,0.0
51139.0,STARLINK-3172,PAYLOAD,2022-06-28 11:19:02,15.08823223,0.0001834,53.2185,240.48,51.4011,308.7145,-0.00010616,-1.976e-05,0.0,0 STARLINK-3172,1 51139U 22005AM  22179.47155144 -.00001976  00000-0 -10616-3 0  9992,2 51139  53.2185 240.4800 0001834  51.4011 308.7145 15.08823223 26012,6917.932,95.439,541.065,538.528,0.0
51139.0,STARLINK-3172,PAYLOAD,2022-06-28 12:54:25,15.08823387,0.0001841,53.2186,240.1826,51.6379,308.4779,-0.00010296,-1.926e-05,0.0,0 STARLINK-3172,1 51139U 22005AM  22179.53779190 -.00001926  00000-0 -10296-3 0  9991,2 51139  53.2186 240.1826 0001841  51.6379 308.4779 15.08823387 24913,6917.931,95.439,541.07,538.523,0.0
51139.0,STARLINK-3172,PAYLOAD,2022-06-29 12:45:12,15.0882237,0.0001889,53.2184,235.7219,48.3652,311.7501,-2.7005e-05,-7.18e-06,0.0,0 STARLINK-3172,1 51139U 22005AM  22180.53140001 -.00000718  00000-0 -27005-4 0  9991,2 51139  53.2184 235.7219 0001889  48.3652 311.7501 15.08822370 26177,6917.934,95.439,541.106,538.492,0.0
51139.0,STARLINK-3172,PAYLOAD,2022-06-29 20:42:08,15.08824537,0.0001913,53.2178,234.2345,45.6585,314.4564,-2.1438e-06,-3.22e-06,0.0,0 STARLINK-3172,1 51139U 22005AM  22180.86260122 -.00000322  00000-0 -21438-5 0  9990,2 51139  53.2178 234.2345 0001913  45.6585 314.4564 15.08824537 25116,6917.928000000001,95.439,541.116,538.469,0.0
51139.0,STARLINK-3172,PAYLOAD,2022-06-30 12:36:00,15.08822348,0.0001928,53.2177,231.2607,46.4975,313.6178,7.4396e-05,8.96e-06,0.0,0 STARLINK-3172,1 51139U 22005AM  22181.52500716  .00000896  00000-0  74396-4 0  9994,2 51139  53.2177 231.2607 0001928  46.4975 313.6178 15.08822348 25212,6917.934,95.439,541.133,538.466,0.0
51139.0,STARLINK-3172,PAYLOAD,2022-06-30 20:32:56,15.08824095,0.0001949,53.2176,229.774,46.5117,313.6037,6.985e-05,8.23e-06,0.0,0 STARLINK-3172,1 51139U 22005AM  22181.85620965  .00000823  00000-0  69850-4 0  9998,2 51139  53.2176 229.7740 0001949  46.5117 313.6037 15.08824095 25263,6917.929,95.439,541.1419999999998,538.446,0.0
51139.0,STARLINK-3172,PAYLOAD,2022-07-01 12:26:48,15.08828942,0.0001968,53.2174,226.8005,46.5198,313.5958,6.047e-05,6.74e-06,0.0,0 STARLINK-3172,1 51139U 22005AM  22182.51861252  .00000674  00000-0  60470-4 0  9991,2 51139  53.2174 226.8005 0001968  46.5198 313.5958 15.08828942 25360,6917.9140000000025,95.438,541.141,538.418,0.0
51139.0,STARLINK-3172,PAYLOAD,2022-07-01 20:23:43,15.08837139,0.0001974,53.2175,225.3139,47.04600000000001,313.0697,0.00011401,1.527e-05,0.0,0 STARLINK-3172,1 51139U 22005AM  22182.84980700  .00001527  00000-0  11401-3 0  9994,2 51139  53.2175 225.3139 0001974  47.0460 313.0697 15.08837139 25417,6917.889,95.438,541.12,538.389,0.0
51139.0,STARLINK-3172,PAYLOAD,2022-07-02 09:06:47,15.08850543,0.0001953,53.2172,222.9345,45.8741,314.2412,0.00017578,2.511e-05,0.0,0 STARLINK-3172,1 51139U 22005AM  22183.37971487  .00002511  00000-0  17578-3 0  9990,2 51139  53.2172 222.9345 0001953  45.8741 314.2412 15.08850543 26605,6917.848000000001,95.437,541.064,538.362,0.0
51139.0,STARLINK-3172,PAYLOAD,2022-07-02 12:17:33,15.08851015,0.0001967,53.2172,222.34,45.7254,314.3899,0.00017461,2.493e-05,0.0,0 STARLINK-3172,1 51139U 22005AM  22183.51219387  .00002493  00000-0  17461-3 0  9990,2 51139  53.2172 222.3400 0001967  45.7254 314.3899 15.08851015 25518,6917.847,95.437,541.072,538.351,0.0
51139.0,STARLINK-3172,PAYLOAD,2022-07-03 12:08:20,15.08847361,0.0001948,53.2176,217.8801,46.1983,313.9170000000001,7.833800000000001e-05,9.59e-06,0.0,0 STARLINK-3172,1 51139U 22005AM  22184.50578968  .00000959  00000-0  78338-4 0  9999,2 51139  53.2176 217.8801 0001948  46.1983 313.9170 15.08847361 25661,6917.858,95.437,541.07,538.375,0.0
51139.0,STARLINK-3172,PAYLOAD,2022-07-03 13:43:43,15.08847663,0.0002021,53.2172,217.5828,43.3973,316.7178,7.8707e-05,9.65e-06,0.0,0 STARLINK-3172,1 51139U 22005AM  22184.57202906  .00000965  00000-0  78707-4 0  9999,2 51139  53.2172 217.5828 0002021  43.3973 316.7178 15.08847663 25679,6917.857,95.437,541.12,538.3240000000002,0.0
51139.0,STARLINK-3172,PAYLOAD,2022-07-04 08:48:21,15.08844083,0.000192,53.217,214.0142,42.4565,317.6575,-0.00014611,-2.613e-05,0.0,0 STARLINK-3172,1 51139U 22005AM  22185.36691343 -.00002613  00000-0 -14611-3 0  9991,2 51139  53.2170 214.0142 0001920  42.4565 317.6575 15.08844083 26903,6917.868,95.437,541.061,538.405,0.0
51139.0,STARLINK-3172,PAYLOAD,2022-07-04 11:59:07,15.08842656,0.0001928,53.217,213.4195,42.6012,317.513,-0.00015076,-2.687e-05,0.0,0 STARLINK-3172,1 51139U 22005AM  22185.49939397 -.00002687  00000-0 -15076-3 0  9996,2 51139  53.2170 213.4195 0001928  42.6012 317.5130 15.08842656 25810,6917.871999999999,95.437,541.071,538.404,0.0
51139.0,STARLINK-3172,PAYLOAD,2022-07-05 10:14:31,15.08846105,0.0002018,53.2168,209.2563,41.057,319.0573,-0.00017867,-3.131e-05,0.0,0 STARLINK-3172,1 51139U 22005AM  22186.42675055 -.00003131  00000-0 -17867-3 0  9993,2 51139  53.2168 209.2563 0002018  41.0570 319.0573 15.08846105 27062,6917.861999999999,95.437,541.123,538.331,0.0
